[{"OBJECT_NAME":"FLOCK 4BE-28","OBJECT_ID":"2024-149BD","EPOCH":"2026-03-09T17:19:29.847072","MEAN_MOTION":15.4101972,"ECCENTRICITY":0.00035041,"INCLINATION":97.3779,"RA_OF_ASC_NODE":153.2276,"ARG_OF_PERICENTER":284.6486,"MEAN_ANOMALY":75.4372,"EPHEMERIS_TYPE":0,"CLASSIFICATION_TYPE":"U","NORAD_CAT_ID":60519,"ELEMENT_SET_NO":999,"REV_AT_EPOCH":8710,"BSTAR":0.00056831294,"MEAN_MOTION_DOT":0.00023409,"MEAN_MOTION_DDOT":0},{"OBJECT_NAME":"3CAT-5A","OBJECT_ID":"2020-061W","EPOCH":"2026-03-09T17:29:03.057504","MEAN_MOTION":15.42878042,"ECCENTRICITY":0.00033971,"INCLINATION":97.2522,"RA_OF_ASC_NODE":131.9087,"ARG_OF_PERICENTER":115.5177,"MEAN_ANOMALY":244.6422,"EPHEMERIS_TYPE":0,"CLASSIFICATION_TYPE":"U","NORAD_CAT_ID":46292,"ELEMENT_SET_NO":999,"REV_AT_EPOCH":30567,"BSTAR":0.00041049377,"MEAN_MOTION_DOT":0.00017953,"MEAN_MOTION_DDOT":0}]
