3CAT-5A                 
1 46292U 20061W   26068.72850761  .00017953  00000+0  41049-3 0  9995
2 46292  97.2522 131.9087 0003397 115.5177 244.6422 15.42878042305676
FLOCK 4BE-28            
1 60519U 24149BD  26068.72187323  .00023409  00000+0  56831-3 0  9999
2 60519  97.3779 153.2276 0003504 284.6486  75.4372 15.41019720 87105
